#aV2010  1 26  0  0   .00000000      96 DD+AD WGS84 FIT  NGA
## 1568 172800.00000000   900.00000000 55222  .0000000000000
+   32     1  2  3  4  5  6  7  8  9 10 11 12 13 14 15 16 17
+         18 19 20 21 22 23 24 25 26 27 28 29 30 31 32  0  0
+          0  0  0  0  0  0  0  0  0  0  0  0  0  0  0  0  0
+          0  0  0  0  0  0  0  0  0  0  0  0  0  0  0  0  0
+          0  0  0  0  0  0  0  0  0  0  0  0  0  0  0  0  0
++         0  0  0  0  0  0  0  0  0  0  0  0  0  0  0  0  0
++         0  0  0  0  0  0  0  0  0  0  0  0  0  0  0  0  0
++         0  0  0  0  0  0  0  0  0  0  0  0  0  0  0  0  0
++         0  0  0  0  0  0  0  0  0  0  0  0  0  0  0  0  0
++         0  0  0  0  0  0  0  0  0  0  0  0  0  0  0  0  0
%c cc cc ccc ccc cccc cccc cccc cccc ccccc ccccc ccccc ccccc
%c cc cc ccc ccc cccc cccc cccc cccc ccccc ccccc ccccc ccccc
%f  0.0000000  0.000000000  0.00000000000  0.000000000000000
%f  0.0000000  0.000000000  0.00000000000  0.000000000000000
%i    0    0    0    0      0      0      0      0         0
%i    0    0    0    0      0      0      0      0         0
/*      NGA, ST. LOUIS,MO.                                  
/*   EPHEMERIS COMPUTED FROM  3 DAYS OF DATA                
/* CCCCCCCCCCCCCCCCCCCCCCCCCCCCCCCCCCCCCCCCCCCCCCCCCCCCCCCCC
/* CCCCCCCCCCCCCCCCCCCCCCCCCCCCCCCCCCCCCCCCCCCCCCCCCCCCCCCCC
*  2010  1 26 18 45   .00000000                                                 
P  1 -17563.466829 -19595.538868  -4273.288799    -83.053562                    
V  1   5625.770212   1596.878246 -31113.439256      -.034310                    
P  2  20722.152644 -13750.872503   8617.025623    219.879574                    
V  2  11734.868150   -261.689077 -28882.006407       .042137                    
P  3 -10379.171558  21337.872883  11223.362188    507.377207                    
V  3  -2276.736923 -15247.046406  26414.540543       .049553                    
P  4  25948.025646  -5307.218784  -3977.929528   -477.191992                    
V  4  -3621.683668   4445.110828 -30493.609759       .067704                    
P  5   9226.772860 -12149.094043  21719.362637    -13.047204                    
V  5  20719.554038  18282.525325   1506.629612       .033119                    
P  6 -13468.229609  18098.693449  14105.994701    256.859653                    
V  6     77.646760 -17941.914178  23506.447686      -.036303                    
P  7  14936.684127   9468.062841  19858.615170      3.754426                    
V  7 -23628.090385   8690.131648  13472.188035      -.005442                    
P  8  24091.895103   1746.248867  11608.487611      2.595730                    
V  8 -13803.874458   4721.892209  27383.039326       .003996                    
P  9   5133.631209 -16639.540561 -20704.748728    102.342308                    
V  9  23573.538095  -7682.073787  12463.651797       .023004                    
P 10  14687.101569  -6580.025427  21003.091766    -33.835855                    
V 10  19303.845380  18951.028875  -7155.252584      -.009020                    
P 11   1091.051731  18004.588614 -19664.125997    -41.879129                    
V 11 -22177.705800  11339.667827   9641.817033      -.021264                    
P 12  -7153.139500 -20629.265527 -15164.209550   -158.027627                    
V 12  15415.334547  11712.362985 -22983.778974       .048802                    
P 13   7122.907341  18025.194451  18024.582629    306.648617                    
V 13  -7268.290247  21932.691890 -18938.155879      -.000352                    
P 14 -14835.666681   -323.449872 -21879.786665      4.630280                    
V 14   6703.214963 -27241.739244  -4231.837468       .043956                    
P 15   7273.205823 -25280.194629   3256.206742   -311.013682                    
V 15   2215.421964   4628.938532  31334.767316       .024809                    
P 16 -15064.662160   5711.453035  21211.246818    -34.772652                    
V 16 -19056.885432 -18760.649022  -8249.038175      -.040816                    
P 17  15618.859562  -1210.907162 -21340.701750    124.534444                    
V 17  -5619.094186  26746.312976  -5813.401127       .032668                    
P 18 -19826.868998 -17948.750138   -790.538026     44.626817                    
V 18   1249.304983  -3208.262844  31003.348600       .026761                    
P 19  -8294.404625  25032.702601   1312.934300    -11.901106                    
V 19  -2571.432712  -2461.091669  31820.336630      -.022550                    
P 20  10860.076446  21007.098979 -12285.014536     62.544049                    
V 20 -13571.717362  -7832.512098 -25615.387923      -.007577                    
P 21 -19554.550248  -7224.267032  17100.683962    -36.543633                    
V 21  19520.937146  -7927.781355  18685.707557      -.024480                    
P 22 -21972.181859  -8865.305640 -11921.104176    180.660059                    
V 22  -9098.419894 -12782.773110  25851.540818      -.008916                    
P 23   1113.525398  24688.753896   9285.685403    381.446944                    
V 23  -5047.346675  11088.466436 -29086.451681      -.008840                    
P 24  -6692.937292 -14168.699145  21530.305444    257.103311                    
V 24  26111.015484  -7518.691162   3432.972254       .032186                    
P 25   8268.796571  12832.210745  22067.560636     87.303780                    
V 25 -24834.950852  11035.864354   3129.086037       .074737                    
P 26 -12054.149168 -10070.296291 -21881.245365    -12.896076                    
V 26   7648.242857 -25389.883430   8114.245902      -.032430                    
P 27   8656.029034 -16519.232835 -18178.055939    120.624242                    
V 27  23405.987263  -7470.721587  17380.629777       .033697                    
P 28  21757.320999  11751.995220  -9629.559558    -23.073080                    
V 28   7714.574630  10430.230970  28481.625360       .004915                    
P 29  -5993.487614 -20901.495243  15370.048875     93.081333                    
V 29   6459.454631 -18334.539801 -22511.496198       .030681                    
P 30 -15961.680761 -20036.781652  -7514.778167    214.053183                    
V 30   8683.975498   3646.341623 -29647.799668       .032679                    
P 31 -25566.713682   7356.796099  -1325.778540    -53.890382                    
V 31   1155.536293  -2715.359217 -31909.438075       .014569                    
P 32   1580.641210  19659.243178 -17579.693684    108.596003                    
V 32 -16807.773122 -15661.827145 -18333.967398      -.081036                    
EOF
